[
    {
        "Altitude(m)": 622205.8741383692,
        "Argument of Periapsis(deg)": 0.0,
        "Eccentricity": 0.0,
        "Inclination(deg)": 60.0,
        "Latitude(deg)": -52.162453762549795,
        "Longitude(deg)": -162.29972192928375,
        "Mean Anomaly(deg)": 245.45449999999994,
        "RAAN(deg)": 70.0,
        "Satellite Name": "Test1 323",
        "Satellite Number": 323,
        "Semi-Major Axis(m)": 6980739.136638005,
        "Time(s)": 0
    },
    {
        "Altitude(m)": 622344.7811046903,
        "Argument of Periapsis(deg)": 0.00010418945913296404,
        "Eccentricity": 0.0,
        "Inclination(deg)": 60.0,
        "Latitude(deg)": -52.52003459202422,
        "Longitude(deg)": -161.5185107395009,
        "Mean Anomaly(deg)": 246.07460614546184,
        "RAAN(deg)": 69.99957995086027,
        "Satellite Name": "Test1 323",
        "Satellite Number": 323,
        "Semi-Major Axis(m)": 6980739.136638005,
        "Time(s)": 10
    }
]